GLOBALSTAR M063         
1 26081U 00008A   24122.70508483 -.00000064  00000+0  26659-3 0  9992
2 26081  51.9926 115.2504 0004620 247.0783 284.0500 11.86153873108744
GLOBALSTAR M062         
1 26082U 00008B   24122.55124679 -.00000027  00000+0  51122-3 0  9999
2 26082  51.9842 226.2483 0006491 312.9284  60.2144 12.43434572445415
GLOBALSTAR M060         
1 26083U 00008C   24122.74795678 -.00000056  00000+0  34318-3 0  9994
2 26083  51.9990 127.4692 0003387   8.4005 163.4297 12.17632293102240
GLOBALSTAR M064         
1 26084U 00008D   24122.55773463 -.00000058  00000+0  35866-3 0  9993
2 26084  52.0024 219.3230 0000926 354.4820   5.6003 11.88518492118267
GLOBALSTAR M065         
1 31571U 07020A   24122.48074661 -.00000058  00000+0  25829-3 0  9995
2 31571  51.9915  39.3251 0010627 114.4839  57.5824 12.61968579781425
GLOBALSTAR M069         
1 31573U 07020C   24122.92639189 -.00000049  00000+0  30718-3 0  9991
2 31573  51.9969 353.8576 0000951  73.6314 299.5080 12.62271435782616
GLOBALSTAR M072         
1 31574U 07020D   24122.63998593 -.00000075  00000+0  16148-3 0  9997
2 31574  52.0074  90.6207 0000346 359.8671 171.5227 12.62271001780840
GLOBALSTAR M071         
1 31576U 07020F   24122.95270093 -.00000044  00000+0  33324-3 0  9993
2 31576  52.0087 358.9060 0000755  35.1017 337.8800 12.62264556443808
